SL-16 R/B               
1 25407U 98045B   26069.70331012  .00000229  00000+0  13985-3 0  9995
2 25407  71.0120 179.4425 0006748   6.8669 353.2546 14.16190470427243
ISS (ZARYA)             
1 25544U 98067A   26069.48132270  .00008982  00000+0  17350-3 0  9995
2 25544  51.6323  68.4424 0007950 177.3713 182.7319 15.48562437556451
CZ-4B R/B               
1 25732U 99025C   26069.88669523  .00000047  00000+0  43619-4 0  9991
2 25732  98.6624 114.1399 0036684 343.1594 189.8649 14.18265497388337
OKEAN-O                 
1 25860U 99039A   26069.73346837  .00000816  00000+0  11380-3 0  9995
2 25860  97.9440 129.6144 0001240  70.3108 289.8238 14.80337153434544
SL-16 R/B               
1 25861U 99039B   26069.71234762  .00000705  00000+0  96207-4 0  9996
2 25861  97.9964 128.8076 0013533 252.3427 107.6308 14.81733243437016
DELTA 2 R/B             
1 25876U 99041E   26069.92841010  .00001301  00000+0  24759-3 0  9993
2 25876  51.7630 296.3330 0502414 352.0836   7.2377 14.11841668363201
HELIOS 1B               
1 25977U 99064A   26069.72273364  .00002202  00000+0  24814-3 0  9992
2 25977  98.1687 331.9964 0002462  73.5287 286.6199 14.87703618685412
TERRA                   
1 25994U 99068A   26069.94619898  .00000527  00000+0  11640-3 0  9996
2 25994  97.9591 123.3329 0002779 148.4730 263.2021 14.61016190395266
SL-16 R/B               
1 26070U 00006B   26070.00158932 -.00000141  00000+0 -47264-4 0  9998
2 26070  71.0008  95.0790 0016694 188.3316 171.7533 14.15825634348741
TITAN 4B R/B            
1 26474U 00047B   26069.95544774  .00005356  00000+0  33506-3 0  9990
2 26474  67.9901  36.9510 0038668  33.9061 326.4548 15.09577669393107
ENVISAT                 
1 27386U 02009A   26069.85399071  .00000176  00000+0  70889-4 0  9991
2 27386  98.3729  23.4236 0001317  82.7249 288.7667 14.39037467259341
IDEFIX & ARIANE 42P R/B 
1 27422U 02021B   26069.82434275  .00000355  00000+0  15153-3 0  9990
2 27422  98.5868   8.4170 0011638 178.8333 181.2879 14.31027114244184
